NORAD_CAT_ID,OBJECT_NAME,OBJECT_TYPE,EPOCH,MEAN_MOTION,ECCENTRICITY,INCLINATION,RA_OF_ASC_NODE,ARG_OF_PERICENTER,MEAN_ANOMALY,BSTAR,MEAN_MOTION_DOT,MEAN_MOTION_DDOT,TLE_LINE0,TLE_LINE1,TLE_LINE2,SEMIMAJOR_AXIS,PERIOD,APOGEE,PERIGEE,DECAYED
53395.0,STARLINK-4534,PAYLOAD,2022-12-22 23:41:27,15.08839722,0.0002331,53.2158,348.5989,41.5634,318.5535,0.0002585,3.828e-05,0.0,0 STARLINK-4534,1 53395U 22097H   22356.98712021  .00003828  00000-0  25850-3 0  9997,2 53395  53.2158 348.5989 0002331  41.5634 318.5535 15.08839722 20983,6917.880999999999,95.438,541.359,538.134,0.0
53395.0,STARLINK-4534,PAYLOAD,2022-12-23 10:49:09,15.08834108,0.0002372,53.215,346.5187,35.4329,324.6821,-4.7257e-06,-3.64e-06,0.0,0 STARLINK-4534,1 53395U 22097H   22357.45080280 -.00000364  00000-0 -47257-5 0  9996,2 53395  53.2150 346.5187 0002372  35.4329 324.6821 15.08834108 21543,6917.898,95.438,541.404,538.122,0.0
53395.0,STARLINK-4534,PAYLOAD,2022-12-24 05:53:46,15.08851152,0.0002366,53.2146,342.9499,37.3003,322.8153,0.00029225,4.367e-05,0.0,0 STARLINK-4534,1 53395U 22097H   22358.24567460  .00004367  00000-0  29225-3 0  9992,2 53395  53.2146 342.9499 0002366  37.3003 322.8153 15.08851152 21172,6917.846,95.437,541.3480000000002,538.075,0.0
53395.0,STARLINK-4534,PAYLOAD,2022-12-24 10:39:56,15.08846295,0.00027,53.2152,342.0575,36.732,323.3856,0.00026139,3.875e-05,0.0,0 STARLINK-4534,1 53395U 22097H   22358.44439829  .00003875  00000-0  26139-3 0  9995,2 53395  53.2152 342.0575 0002700  36.7320 323.3856 15.08846295 21697,6917.861,95.437,541.594,537.8580000000002,0.0
53395.0,STARLINK-4534,PAYLOAD,2022-12-25 08:55:19,15.08841431,0.0002368,53.2149,337.8939,30.3792,329.7337,-3.7523e-06,-3.48e-06,0.0,0 STARLINK-4534,1 53395U 22097H   22359.37175373 -.00000348  00000-0 -37523-5 0  9994,2 53395  53.2149 337.8939 0002368  30.3792 329.7337 15.08841431 21345,6917.876,95.437,541.379,538.1030000000002,0.0
53395.0,STARLINK-4534,PAYLOAD,2022-12-25 15:16:52,15.08826378,0.0002378,53.2143,336.7038,34.611,325.5037,1.7653e-05,-7e-08,0.0,0 STARLINK-4534,1 53395U 22097H   22359.63672252 -.00000007  00000-0  17653-4 0  9993,2 53395  53.2143 336.7038 0002378  34.6110 325.5037 15.08826378 21387,6917.922,95.438,541.432,538.1419999999998,0.0
53395.0,STARLINK-4534,PAYLOAD,2022-12-26 02:24:34,15.08840588,0.0002378,53.2144,334.6212,30.8198,329.2933,-3.3149000000000004e-05,-8.16e-06,0.0,0 STARLINK-4534,1 53395U 22097H   22360.10039912 -.00000816  00000-0 -33149-4 0  9994,2 53395  53.2144 334.6212 0002378  30.8198 329.2933 15.08840588 21456,6917.879,95.438,541.389,538.099,0.0
53395.0,STARLINK-4534,PAYLOAD,2022-12-26 10:21:29,15.08849552,0.0002368,53.2151,333.1365,34.7302,325.3844,5.2243e-05,5.43e-06,0.0,0 STARLINK-4534,1 53395U 22097H   22360.43159198  .00000543  00000-0  52243-4 0  9990,2 53395  53.2151 333.1365 0002368  34.7302 325.3844 15.08849552 21993,6917.851,95.437,541.354,538.078,0.0
53395.0,STARLINK-4534,PAYLOAD,2022-12-26 23:04:35,15.08839446,0.0002428,53.2151,330.75699999999995,27.5041,332.608,7.9445e-05,9.76e-06,0.0,0 STARLINK-4534,1 53395U 22097H   22360.96151708  .00000976  00000-0  79445-4 0  9990,2 53395  53.2151 330.7570 0002428  27.5041 332.6080 15.08839446 21580,6917.882,95.438,541.427,538.067,0.0
53395.0,STARLINK-4534,PAYLOAD,2022-12-28 06:52:16,15.08856426,0.0002414,53.2147,324.8094,34.6891,325.4259,0.00017459,2.493e-05,0.0,0 STARLINK-4534,1 53395U 22097H   22362.28629891  .00002493  00000-0  17459-3 0  9992,2 53395  53.2147 324.8094 0002414  34.6891 325.4259 15.08856426 22279,6917.83,95.437,541.365,538.025,0.0
53395.0,STARLINK-4534,PAYLOAD,2022-12-29 03:32:17,15.08835047,0.0002186,53.2152,320.9415,33.5823,326.5307,-0.00015043,-2.681e-05,0.0,0 STARLINK-4534,1 53395U 22097H   22363.14743009 -.00002681  00000-0 -15043-3 0  9994,2 53395  53.2152 320.9415 0002186  33.5823 326.5307 15.08835047 21910,6917.896,95.438,541.273,538.248,0.0
53395.0,STARLINK-4534,PAYLOAD,2022-12-29 06:43:04,15.08836805,0.0002222,53.2153,320.3455,34.3379,325.7756,-0.00011069,-2.049e-05,0.0,0 STARLINK-4534,1 53395U 22097H   22363.27990967 -.00002049  00000-0 -11069-3 0  9997,2 53395  53.2153 320.3455 0002222  34.3379 325.7756 15.08836805 22424,6917.89,95.438,541.2919999999998,538.2180000000002,0.0
53395.0,STARLINK-4534,PAYLOAD,2022-12-30 06:33:51,15.08841785,0.0002008,53.2139,315.8872,36.104,324.0088,0.00036809,5.575e-05,0.0,0 STARLINK-4534,1 53395U 22097H   22364.27351580  .00005575  00000-0  36809-3 0  9994,2 53395  53.2139 315.8872 0002008  36.1040 324.0088 15.08841785 22082,6917.875,95.437,541.129,538.351,0.0
53395.0,STARLINK-4534,PAYLOAD,2022-12-30 20:52:20,15.08834805,0.0002016,53.2145,313.211,36.3084,323.8045,0.00026813,3.981e-05,0.0,0 STARLINK-4534,1 53395U 22097H   22364.86968246  .00003981  00000-0  26813-3 0  9995,2 53395  53.2145 313.2110 0002016  36.3084 323.8045 15.08834805 22170,6917.896,95.438,541.156,538.367,0.0
53395.0,STARLINK-4534,PAYLOAD,2022-12-31 06:24:39,15.0884761,0.0002145,53.2134,311.4266,42.0964,318.0193,0.00045422,6.95e-05,0.0,0 STARLINK-4534,1 53395U 22097H   22365.26711897  .00006950  00000-0  45422-3 0  9994,2 53395  53.2134 311.4266 0002145  42.0964 318.0193 15.08847610 22239,6917.857,95.437,541.206,538.238,0.0
53395.0,STARLINK-4534,PAYLOAD,2022-12-31 20:43:08,15.08828403,0.0001933,53.2139,308.7507,37.075,323.0375,-2.8166e-05,-7.36e-06,0.0,0 STARLINK-4534,1 53395U 22097H   22365.86328861 -.00000736  00000-0 -28166-4 0  9990,2 53395  53.2139 308.7507 0001933  37.0750 323.0375 15.08828403 22813,6917.916,95.438,541.118,538.444,0.0
53395.0,STARLINK-4534,PAYLOAD,2023-01-01 06:15:27,15.08831503,0.0002046999999999,53.2142,306.9664,42.0906,318.0243,7.8825e-05,9.66e-06,0.0,0 STARLINK-4534,1 53395U 22097H   23001.26073109  .00000966  00000-0  78825-4 0  9994,2 53395  53.2142 306.9664 0002047  42.0906 318.0243 15.08831503 22876,6917.906,95.438,541.187,538.355,0.0
53395.0,STARLINK-4534,PAYLOAD,2023-01-01 20:33:55,15.08837361,0.0001969,53.2148,304.2898,46.89100000000001,313.2247,0.00027001,4.011e-05,0.0,0 STARLINK-4534,1 53395U 22097H   23001.85689332  .00004011  00000-0  27001-3 0  9994,2 53395  53.2148 304.2898 0001969  46.8910 313.2247 15.08837361 22960,6917.888000000001,95.438,541.116,538.391,0.0
53395.0,STARLINK-4534,PAYLOAD,2023-01-02 02:55:27,15.08847471,0.0001975,53.2143,303.1007,45.7548,314.3606,0.00048082,7.374e-05,0.0,0 STARLINK-4534,1 53395U 22097H   23002.12185039  .00007374  00000-0  48082-3 0  9997,2 53395  53.2143 303.1007 0001975  45.7548 314.3606 15.08847471 22512,6917.858,95.437,541.089,538.356,0.0
53395.0,STARLINK-4534,PAYLOAD,2023-01-02 12:27:46,15.0884397,0.0002086999999999,53.2152,301.3147,48.2713,311.8458,0.00047935,7.35e-05,0.0,0 STARLINK-4534,1 53395U 22097H   23002.51929260  .00007350  00000-0  47935-3 0  9992,2 53395  53.2152 301.3147 0002087  48.2713 311.8458 15.08843970 22577,6917.868,95.437,541.177,538.289,0.0
53395.0,STARLINK-4534,PAYLOAD,2023-01-02 20:24:42,15.08838914,0.0001958,53.2141,299.8289,61.6519,298.4671,2.769e-05,1.53e-06,0.0,0 STARLINK-4534,1 53395U 22097H   23002.85049287  .00000153  00000-0  27690-4 0  9992,2 53395  53.2141 299.8289 0001958  61.6519 298.4671 15.08838914 23112,6917.884,95.438,541.1030000000002,538.394,0.0
53395.0,STARLINK-4534,PAYLOAD,2023-01-03 04:21:38,15.08848166,0.000187,53.2144,298.3431,57.9654,302.1519,0.00031723,4.765e-05,0.0,0 STARLINK-4534,1 53395U 22097H   23003.18169111  .00004765  00000-0  31723-3 0  9992,2 53395  53.2144 298.3431 0001870  57.9654 302.1519 15.08848166 22673,6917.855,95.437,541.014,538.427,0.0
53395.0,STARLINK-4534,PAYLOAD,2023-01-04 02:37:02,15.08845093,0.0001847,53.2145,294.1798,58.4247,301.6926,0.00022509,3.297e-05,0.0,0 STARLINK-4534,1 53395U 22097H   23004.10905243  .00003297  00000-0  22509-3 0  9990,2 53395  53.2145 294.1798 0001847  58.4247 301.6926 15.08845093 22810,6917.865,95.437,541.008,538.452,0.0
53395.0,STARLINK-4534,PAYLOAD,2023-01-04 12:09:20,15.08848993,0.0001865,53.2145,292.3953,65.3786,294.74,0.00035345,5.343e-05,0.0,0 STARLINK-4534,1 53395U 22097H   23004.50649139  .00005343  00000-0  35345-3 0  9999,2 53395  53.2145 292.3953 0001865  65.3786 294.7400 15.08848993 23360,6917.853,95.437,541.008,538.428,0.0
53395.0,STARLINK-4534,PAYLOAD,2023-01-05 04:03:11,15.08866138,0.0001663,53.2139,289.4218,65.5502,294.5663,0.00056525,8.726e-05,0.0,0 STARLINK-4534,1 53395U 22097H   23005.16888005  .00008726  00000-0  56525-3 0  9990,2 53395  53.2139 289.4218 0001663  65.5502 294.5663 15.08866138 22974,6917.8,95.436,540.816,538.515,0.0
53395.0,STARLINK-4534,PAYLOAD,2023-01-05 12:00:07,15.08841497,0.0001443999999999,53.215,287.9356,70.9991,289.1157,-0.00019602,-3.406e-05,0.0,0 STARLINK-4534,1 53395U 22097H   23005.50008447 -.00003406  00000-0 -19602-3 0  9999,2 53395  53.2150 287.9356 0001444  70.9991 289.1157 15.08841497 23028,6917.876,95.437,540.74,538.742,0.0
53395.0,STARLINK-4534,PAYLOAD,2023-01-05 18:21:40,15.08829451,0.0002225,53.2133,286.745,78.4459,281.6783,-0.00033888,-5.676e-05,0.0,0 STARLINK-4534,1 53395U 22097H   23005.76505232 -.00005676  00000-0 -33888-3 0  9994,2 53395  53.2133 286.7450 0002225  78.4459 281.6783 15.08829451 23557,6917.913000000001,95.438,541.317,538.238,0.0
53395.0,STARLINK-4534,PAYLOAD,2023-01-06 18:12:28,15.08841477,0.0001652,53.213,282.2844,88.5828,271.5354,0.0012505,0.00019671,0.0,0 STARLINK-4534,1 53395U 22097H   23006.75866085  .00019671  00000-0  12505-2 0  9990,2 53395  53.2130 282.2844 0001652  88.5828 271.5354 15.08841477 23214,6917.876,95.437,540.884,538.5980000000002,0.0
53395.0,STARLINK-4534,PAYLOAD,2023-01-07 03:44:46,15.08860805,0.000169,53.2131,280.5002,90.3479,269.7707,0.0012964,0.00020416,0.0,0 STARLINK-4534,1 53395U 22097H   23007.15609648  .00020416  00000-0  12964-2 0  9993,2 53395  53.2131 280.5002 0001690  90.3479 269.7707 15.08860805 23764,6917.816999999999,95.436,540.851,538.513,0.0
